{"type":"FeatureCollection","properties":{"fuente":"Recintos reconstruidos de 007_SUBTE 1_PBP.dxf con scripts/extraer_planta_dxf.py --recintos","unidades":"metros, origen abajo-izquierda, [x, y]"},"features":[{"type":"Feature","properties":{"area_m2":849.7},"geometry":{"type":"Polygon","coordinates":[[[34.35,66.42],[36.1,65.49],[35.86,65.49],[35.86,64.85],[37.81,64.85],[37.81,65.38],[37.5,65.38],[39.37,66.12],[39.37,65.36],[38.59,65.36],[38.59,64.73],[40.52,64.73],[40.52,65.22],[39.77,65.22],[39.77,66.12],[41.5,65.28],[41.28,65.15],[41.28,64.59],[42.12,64.47],[41.68,64.47],[41.68,57.9],[41.52,57.75],[41.52,57.2],[42.27,56.75],[42.27,56.1],[41.55,55.65],[41.58,55.0],[41.58,52.65],[42.8,48.52],[52.58,48.52],[53.68,52.65],[53.68,54.95],[53.8,55.05],[53.8,55.55],[53.08,56.1],[53.08,56.75],[53.75,57.6],[53.75,63.91],[53.2,63.91],[74.45,62.93],[74.03,62.65],[74.03,57.9],[73.93,57.75],[73.93,57.2],[74.67,56.75],[74.67,56.1],[73.97,55.68],[74.0,55.0],[74.0,52.65],[75.2,48.52],[84.98,48.52],[86.08,52.65],[86.08,54.95],[86.28,55.05],[85.48,56.1],[85.48,56.75],[86.13,57.6],[86.08,57.95],[86.08,62.22],[85.58,62.25],[86.41,62.25],[86.41,62.81],[85.65,62.81],[85.65,63.08],[87.95,63.08],[87.95,62.76],[87.19,62.76],[87.19,62.15],[89.07,62.15],[89.07,62.72],[88.33,62.82],[88.8,62.8],[90.6,62.72],[89.91,62.72],[89.91,62.02],[96.09,61.75],[96.09,60.6],[92.0,60.6],[91.55,61.47],[90.88,61.47],[90.88,60.58],[90.65,60.58],[90.65,52.95],[90.0,52.58],[89.77,52.05],[89.77,51.72],[90.65,51.72],[90.65,46.24],[95.97,46.24],[95.97,45.27],[85.97,45.27],[85.97,46.23],[84.97,46.23],[84.97,45.12],[75.15,45.12],[75.15,46.25],[74.18,46.25],[74.18,45.12],[67.39,45.12],[67.39,35.22],[66.58,35.22],[66.97,34.45],[66.58,33.62],[67.39,33.62],[67.39,22.07],[74.2,22.07],[74.2,20.91],[75.14,20.91],[75.14,22.09],[87.15,22.08],[85.03,22.08],[85.03,20.89],[85.94,20.89],[85.94,21.87],[95.99,21.87],[95.99,20.94],[90.62,20.94],[90.62,15.43],[89.67,15.43],[89.92,14.75],[90.72,14.3],[90.72,4.88],[91.55,4.88],[92.0,5.67],[96.09,5.67],[96.09,4.61],[90.2,4.57],[89.89,4.57],[89.89,4.08],[90.38,4.08],[88.95,3.52],[88.39,3.52],[88.39,4.02],[89.1,4.02],[89.1,4.6],[87.2,4.6],[87.2,4.0],[87.9,4.0],[87.9,3.48],[86.12,3.95],[86.38,4.6],[86.06,4.6],[86.06,18.09],[84.75,18.09],[84.05,18.88],[83.65,18.83],[76.45,18.91],[76.0,18.91],[75.36,18.5],[75.36,18.05],[74.0,18.05],[73.25,18.88],[72.85,18.83],[65.65,18.91],[65.2,18.91],[64.56,18.5],[64.56,18.05],[63.2,18.05],[62.45,18.88],[62.05,18.83],[54.85,18.91],[54.4,18.91],[53.7,18.05],[52.4,18.05],[51.65,18.88],[51.25,18.83],[44.05,18.91],[43.6,18.91],[42.9,18.14],[41.7,18.14],[41.7,4.59],[41.31,4.59],[41.31,4.08],[41.77,4.08],[41.1,3.71],[39.85,3.71],[39.85,4.06],[40.54,4.06],[40.54,4.6],[38.58,4.6],[38.58,4.0],[39.38,4.0],[39.35,3.77],[39.0,3.85],[37.65,3.85],[37.65,4.59],[37.0,4.59],[37.0,14.3],[37.94,15.2],[37.94,15.54],[37.02,15.54],[37.02,16.6],[37.95,16.6],[37.95,17.15],[37.08,17.75],[37.08,20.05],[38.02,20.6],[38.02,21.16],[38.5,21.16],[38.5,28.3],[39.33,28.7],[39.95,29.6],[39.95,37.65],[39.3,38.58],[38.48,38.95],[38.48,46.08],[38.02,46.08],[38.02,46.65],[37.08,47.2],[37.08,48.4],[37.93,49.0],[37.93,49.6],[37.02,49.6],[37.02,50.72],[37.95,50.72],[37.95,51.25],[37.05,51.85],[37.05,60.36],[31.69,60.36],[31.69,61.33],[32.52,61.33],[32.02,62.2],[32.48,63.2],[31.93,63.2],[31.93,64.85],[31.62,65.03],[35.05,65.03],[35.05,65.54],[34.34,65.54],[34.34,66.42],[63.45,63.23],[63.45,61.22],[64.29,61.22],[64.29,63.23],[63.45,63.23],[62.05,60.48],[60.65,60.48],[55.86,59.3],[55.86,49.65],[60.65,48.48],[62.0,48.48],[62.15,48.33],[62.75,48.33],[63.15,49.08],[64.5,49.08],[64.92,48.34],[65.5,48.34],[71.85,49.6],[71.85,59.25],[67.05,60.43],[65.65,60.43],[65.5,60.59],[64.92,60.59],[64.5,59.88],[63.15,59.88],[62.8,60.58],[62.15,60.58],[41.77,46.2],[41.77,45.16],[42.73,45.16],[42.73,46.27],[52.56,46.27],[52.56,45.16],[53.54,45.16],[53.54,46.23],[52.6,46.25],[63.36,46.25],[63.36,45.16],[64.34,45.16],[64.34,46.23],[63.4,46.23],[41.08,44.8],[41.08,22.34],[43.0,22.37],[65.03,22.37],[65.03,44.89],[43.0,44.89],[41.77,20.91],[42.71,20.91],[42.72,21.2],[42.72,22.06],[41.8,22.07],[52.62,22.07],[52.62,20.89],[53.53,20.89],[53.53,22.04],[52.6,22.05],[63.39,22.05],[63.39,20.91],[64.31,20.91],[64.31,22.04],[63.4,22.04],[34.35,66.42]]]}},{"type":"Feature","properties":{"area_m2":107.9},"geometry":{"type":"Polygon","coordinates":[[[87.35,45.06],[96.06,45.06],[96.06,43.34],[92.02,43.34],[92.02,41.25],[90.83,40.92],[91.12,40.92],[91.12,33.8],[90.88,33.5],[91.17,33.5],[91.17,26.45],[90.88,26.1],[92.02,26.1],[92.02,23.93],[96.0,23.93],[96.0,22.09],[87.31,22.09],[87.31,32.02],[88.12,32.02],[87.73,32.8],[88.12,33.62],[87.34,33.62],[87.34,45.08],[87.35,45.06]]]}},{"type":"Feature","properties":{"area_m2":84.5},"geometry":{"type":"Polygon","coordinates":[[[96.85,41.27],[99.95,41.27],[100.2,40.97],[101.27,40.97],[101.27,26.23],[96.85,25.98],[95.85,26.25],[95.85,28.85],[95.58,28.85],[95.58,33.45],[95.83,33.75],[95.53,33.75],[95.53,38.3],[95.81,38.3],[95.81,40.85],[96.85,41.27],[96.85,41.27]]]}},{"type":"Feature","properties":{"area_m2":74.1},"geometry":{"type":"Polygon","coordinates":[[[49.3,66.42],[98.4,65.67],[98.49,63.52],[98.49,65.66],[99.36,65.66],[99.36,62.22],[98.55,62.22],[98.45,62.73],[98.45,62.27],[97.8,62.27],[91.03,62.88],[91.03,65.33],[85.29,65.62],[85.29,63.39],[84.75,63.39],[49.3,66.42],[49.3,66.42]]]}},{"type":"Feature","properties":{"area_m2":65.7},"geometry":{"type":"Polygon","coordinates":[[[62.65,44.23],[62.65,22.98],[59.61,26.35],[59.61,34.41],[57.26,34.41],[57.26,29.03],[54.23,32.4],[54.23,34.8],[55.85,36.62],[56.7,35.93],[58.3,35.48],[60.3,36.02],[61.38,36.95],[61.83,37.85],[59.92,38.62],[59.92,39.8],[61.83,40.6],[60.77,42.1],[62.65,44.23],[62.65,44.23]]]}},{"type":"Feature","properties":{"area_m2":60.2},"geometry":{"type":"Polygon","coordinates":[[[3.2,44.88],[5.17,44.2],[4.98,44.0],[5.08,23.2],[5.08,22.9],[3.75,22.28],[2.3,22.98],[3.58,22.15],[2.16,21.62],[2.16,23.17],[2.73,23.17],[2.73,23.85],[2.03,41.9],[2.03,44.1],[1.38,44.1],[3.2,44.88],[3.2,44.88]]]}},{"type":"Feature","properties":{"area_m2":59.7},"geometry":{"type":"Polygon","coordinates":[[[31.75,69.17],[94.67,65.9],[47.0,66.58],[42.42,66.97],[42.42,67.88],[34.25,68.31],[33.94,68.31],[33.94,67.88],[31.73,67.88],[31.73,69.17],[31.75,69.17]]]}},{"type":"Feature","properties":{"area_m2":57.5},"geometry":{"type":"Polygon","coordinates":[[[74.85,62.88],[85.3,62.38],[84.83,62.1],[84.83,57.8],[85.08,57.65],[85.08,56.95],[84.8,56.68],[75.3,56.68],[75.13,56.95],[75.13,62.79],[74.85,62.79],[81.5,58.08],[81.23,57.8],[81.5,57.33],[81.98,57.6],[81.5,58.08],[74.85,62.88]]]}},{"type":"Feature","properties":{"area_m2":56.3},"geometry":{"type":"Polygon","coordinates":[[[32.65,42.26],[35.72,42.26],[35.8,25.38],[35.8,42.23],[36.69,42.23],[36.69,24.98],[35.9,24.98],[35.8,25.23],[35.65,24.99],[32.62,24.99],[32.62,27.3],[33.67,27.3],[33.67,39.9],[32.63,39.9],[32.63,42.27],[32.65,42.26]]]}},{"type":"Feature","properties":{"area_m2":54.2},"geometry":{"type":"Polygon","coordinates":[[[43.45,44.23],[46.48,40.85],[46.48,26.35],[43.45,22.98],[43.45,44.23],[43.45,44.23]]]}},{"type":"Feature","properties":{"area_m2":49.6},"geometry":{"type":"Polygon","coordinates":[[[0.7,63.51],[7.02,63.51],[7.02,63.02],[5.3,62.08],[4.0,60.73],[3.08,58.85],[2.77,57.2],[2.77,52.35],[3.08,50.75],[4.22,48.65],[5.7,47.27],[7.02,46.6],[7.02,46.19],[1.28,46.19],[0.7,63.52],[0.7,63.51]]]}},{"type":"Feature","properties":{"area_m2":48.5},"geometry":{"type":"Polygon","coordinates":[[[6.75,43.21],[7.06,43.21],[7.06,42.26],[8.68,42.26],[8.68,39.95],[8.43,39.85],[8.43,27.35],[8.68,27.25],[8.68,24.99],[7.1,24.99],[7.1,24.23],[5.78,24.6],[5.78,42.65],[6.28,42.65],[6.75,43.27],[6.75,43.21]]]}},{"type":"Feature","properties":{"area_m2":47.7},"geometry":{"type":"Polygon","coordinates":[[[70.45,41.51],[73.47,41.51],[73.47,25.77],[70.44,25.77],[70.44,41.52],[70.45,41.51]]]}},{"type":"Feature","properties":{"area_m2":47.7},"geometry":{"type":"Polygon","coordinates":[[[81.25,41.48],[84.27,41.48],[84.27,25.74],[81.24,25.74],[81.24,41.52],[81.25,41.48]]]}},{"type":"Feature","properties":{"area_m2":47.4},"geometry":{"type":"Polygon","coordinates":[[[75.85,41.48],[78.86,41.48],[78.86,25.77],[75.84,25.77],[75.84,41.52],[75.85,41.48]]]}},{"type":"Feature","properties":{"area_m2":44.2},"geometry":{"type":"Polygon","coordinates":[[[6.99,62.88],[6.99,59.2],[6.13,57.9],[6.08,56.9],[6.16,52.8],[6.16,51.75],[7.02,50.45],[7.02,46.77],[5.65,47.52],[4.17,49.0],[3.27,50.75],[2.98,52.3],[2.98,57.25],[3.27,58.85],[4.67,61.25],[6.95,62.88],[6.99,62.88]]]}},{"type":"Feature","properties":{"area_m2":42.4},"geometry":{"type":"Polygon","coordinates":[[[0.15,71.12],[101.53,65.88],[101.46,44.62],[101.46,65.72],[0.23,71.0],[1.98,21.46],[6.84,21.46],[6.84,23.56],[7.1,23.53],[7.49,23.53],[7.49,21.43],[12.24,21.43],[12.24,23.56],[12.9,23.56],[12.9,21.41],[17.64,21.41],[17.64,23.56],[18.3,23.56],[18.3,21.41],[23.04,21.41],[23.04,23.56],[23.7,23.56],[23.7,21.41],[28.44,21.41],[28.44,23.56],[29.1,23.56],[29.1,21.41],[33.84,21.41],[33.84,23.55],[34.5,23.55],[34.5,21.4],[36.83,21.34],[31.49,21.34],[31.49,16.54],[36.8,16.54],[36.83,16.27],[31.52,16.27],[31.52,0.28],[101.42,0.28],[101.48,22.68],[101.48,0.2],[31.27,0.2],[31.27,21.33],[1.93,21.33],[0.15,71.12],[0.15,71.12]]]}},{"type":"Feature","properties":{"area_m2":42.0},"geometry":{"type":"Polygon","coordinates":[[[42.45,66.53],[49.2,66.28],[85.27,63.23],[85.27,62.95],[42.45,65.12],[42.45,66.53],[42.45,66.53]]]}},{"type":"Feature","properties":{"area_m2":37.1},"geometry":{"type":"Polygon","coordinates":[[[11.05,39.72],[14.07,39.72],[14.07,27.49],[11.04,27.49],[11.04,39.73],[11.05,39.72]]]}},{"type":"Feature","properties":{"area_m2":37.1},"geometry":{"type":"Polygon","coordinates":[[[21.85,39.72],[24.87,39.72],[24.87,27.49],[21.84,27.49],[21.84,39.73],[21.85,39.72]]]}},{"type":"Feature","properties":{"area_m2":37.1},"geometry":{"type":"Polygon","coordinates":[[[27.25,39.72],[30.27,39.72],[30.27,27.49],[27.24,27.49],[27.24,39.73],[27.25,39.72]]]}},{"type":"Feature","properties":{"area_m2":36.6},"geometry":{"type":"Polygon","coordinates":[[[63.25,44.66],[64.81,44.66],[64.81,22.54],[63.19,22.54],[63.19,37.89],[62.91,37.89],[62.89,22.75],[62.91,44.45],[62.91,40.6],[63.2,40.52],[63.2,44.68],[63.25,44.66]]]}},{"type":"Feature","properties":{"area_m2":36.3},"geometry":{"type":"Polygon","coordinates":[[[0.45,70.83],[12.51,69.67],[12.51,67.22],[0.53,67.22],[0.53,70.83],[0.45,70.83]]]}},{"type":"Feature","properties":{"area_m2":35.2},"geometry":{"type":"Polygon","coordinates":[[[41.3,44.66],[42.87,44.66],[42.87,22.54],[41.28,22.54],[41.28,44.68],[41.3,44.66]]]}},{"type":"Feature","properties":{"area_m2":32.2},"geometry":{"type":"Polygon","coordinates":[[[10.35,59.98],[20.77,59.98],[20.77,56.89],[10.35,56.89],[10.35,59.98],[10.35,59.98]]]}},{"type":"Feature","properties":{"area_m2":30.5},"geometry":{"type":"Polygon","coordinates":[[[73.7,41.51],[75.62,41.51],[75.62,25.85],[75.4,25.71],[73.69,25.71],[73.69,41.52],[73.7,41.51]]]}},{"type":"Feature","properties":{"area_m2":29.3},"geometry":{"type":"Polygon","coordinates":[[[79.25,41.51],[81.02,41.51],[81.02,25.74],[79.16,25.74],[79.16,41.52],[79.25,41.51]]]}},{"type":"Feature","properties":{"area_m2":28.3},"geometry":{"type":"Polygon","coordinates":[[[20.8,66.75],[31.37,66.75],[31.33,66.1],[31.33,65.66],[30.94,65.66],[30.94,63.93],[21.13,63.93],[21.13,66.25],[20.77,66.25],[20.77,66.83],[20.8,66.75]]]}},{"type":"Feature","properties":{"area_m2":27.8},"geometry":{"type":"Polygon","coordinates":[[[7.3,66.78],[20.55,66.09],[20.93,66.09],[20.93,65.45],[20.16,65.45],[20.16,63.98],[12.6,63.98],[12.6,64.63],[12.02,64.63],[12.02,63.98],[10.0,63.98],[10.0,65.53],[7.55,65.53],[7.3,64.08],[7.3,66.78],[7.3,66.78]]]}},{"type":"Feature","properties":{"area_m2":26.7},"geometry":{"type":"Polygon","coordinates":[[[65.85,2.1],[69.15,2.1],[69.15,0.49],[47.77,0.49],[47.77,1.19],[48.25,1.19],[65.85,2.18],[65.85,2.1]]]}},{"type":"Feature","properties":{"area_m2":26.2},"geometry":{"type":"Polygon","coordinates":[[[47.8,4.03],[69.16,4.03],[69.16,2.42],[65.85,2.42],[48.25,3.31],[47.78,3.31],[47.78,4.03],[47.8,4.03]]]}},{"type":"Feature","properties":{"area_m2":24.5},"geometry":{"type":"Polygon","coordinates":[[[97.25,20.78],[100.3,20.78],[100.67,20.1],[101.28,20.1],[101.28,14.69],[100.75,14.69],[100.4,14.08],[100.15,14.73],[99.75,14.73],[99.4,14.08],[99.15,14.78],[98.16,14.08],[98.16,14.55],[97.45,14.91],[97.16,14.91],[97.16,14.13],[96.64,14.13],[96.64,16.06],[100.13,16.06],[100.13,16.59],[96.64,16.59],[96.64,18.71],[100.16,18.71],[100.16,19.24],[96.62,19.24],[96.62,20.29],[97.22,20.29],[97.22,20.78],[97.25,20.78]]]}},{"type":"Feature","properties":{"area_m2":24.1},"geometry":{"type":"Polygon","coordinates":[[[96.6,52.91],[97.27,52.91],[97.27,52.11],[97.83,52.11],[98.25,52.88],[99.05,52.23],[99.3,52.88],[100.05,52.23],[100.3,52.88],[100.75,52.34],[101.28,52.34],[101.28,47.16],[100.7,47.16],[100.35,46.43],[97.2,46.43],[97.2,46.94],[96.59,46.94],[96.59,48.11],[100.13,48.11],[100.13,48.62],[96.6,48.62],[96.6,50.47],[100.16,50.47],[100.16,50.98],[96.6,50.98],[96.6,52.93],[96.6,52.91]]]}},{"type":"Feature","properties":{"area_m2":24.1},"geometry":{"type":"Polygon","coordinates":[[[48.85,44.72],[51.87,44.72],[51.87,35.08],[48.84,38.45],[48.84,44.73],[48.85,44.72]]]}},{"type":"Feature","properties":{"area_m2":24.0},"geometry":{"type":"Polygon","coordinates":[[[51.87,32.12],[51.87,22.54],[48.84,22.54],[48.84,28.75],[51.85,32.12],[51.87,32.12]]]}},{"type":"Feature","properties":{"area_m2":23.9},"geometry":{"type":"Polygon","coordinates":[[[54.25,32.12],[57.26,28.75],[57.26,22.54],[54.24,22.54],[54.24,32.12],[54.25,32.12]]]}},{"type":"Feature","properties":{"area_m2":23.6},"geometry":{"type":"Polygon","coordinates":[[[8.9,39.72],[10.82,39.72],[10.82,27.49],[8.89,27.49],[8.89,39.73],[8.9,39.72]]]}},{"type":"Feature","properties":{"area_m2":23.6},"geometry":{"type":"Polygon","coordinates":[[[25.1,39.72],[27.02,39.72],[27.02,27.49],[25.09,27.49],[25.09,39.73],[25.1,39.72]]]}},{"type":"Feature","properties":{"area_m2":23.6},"geometry":{"type":"Polygon","coordinates":[[[31.7,3.88],[36.67,3.88],[36.67,1.23],[42.42,1.23],[42.42,3.41],[44.87,3.41],[44.87,1.2],[31.7,0.48],[31.7,3.98],[31.7,3.88]]]}},{"type":"Feature","properties":{"area_m2":23.5},"geometry":{"type":"Polygon","coordinates":[[[14.3,39.72],[16.21,39.72],[16.21,27.49],[14.29,27.49],[14.29,39.73],[14.3,39.72]]]}},{"type":"Feature","properties":{"area_m2":23.5},"geometry":{"type":"Polygon","coordinates":[[[19.7,39.72],[21.61,39.72],[21.61,27.49],[19.69,27.49],[19.69,39.73],[19.7,39.72]]]}},{"type":"Feature","properties":{"area_m2":23.5},"geometry":{"type":"Polygon","coordinates":[[[30.5,39.72],[32.41,39.72],[32.41,27.49],[30.49,27.49],[30.49,39.73],[30.5,39.72]]]}},{"type":"Feature","properties":{"area_m2":23.4},"geometry":{"type":"Polygon","coordinates":[[[42.45,64.58],[52.9,64.08],[52.02,63.7],[53.08,59.2],[52.02,59.2],[51.18,62.51],[48.1,62.51],[48.1,62.8],[47.15,62.8],[47.15,62.48],[44.1,62.48],[43.33,59.29],[42.3,59.29],[43.43,64.29],[42.45,64.29],[42.45,64.58],[42.45,64.58]]]}},{"type":"Feature","properties":{"area_m2":23.1},"geometry":{"type":"Polygon","coordinates":[[[26.45,62.52],[28.23,61.35],[29.73,58.85],[30.02,57.0],[30.02,53.74],[27.09,53.74],[27.09,57.45],[26.28,59.05],[26.28,62.25],[26.88,61.95],[26.45,62.52],[26.45,62.52]]]}},{"type":"Feature","properties":{"area_m2":22.8},"geometry":{"type":"Polygon","coordinates":[[[54.25,44.72],[62.68,44.72],[60.6,42.23],[59.4,42.91],[58.3,42.91],[56.7,42.52],[55.62,41.6],[54.85,40.35],[54.85,39.0],[55.12,37.6],[55.73,36.75],[54.25,35.08],[54.25,44.73],[54.25,44.72]]]}},{"type":"Feature","properties":{"area_m2":22.7},"geometry":{"type":"Polygon","coordinates":[[[46.7,40.58],[48.62,38.45],[48.62,28.8],[46.7,26.62],[46.7,40.58],[46.7,40.58]]]}},{"type":"Feature","properties":{"area_m2":22.6},"geometry":{"type":"Polygon","coordinates":[[[10.35,55.38],[15.7,55.38],[15.7,54.73],[16.19,54.73],[16.19,55.33],[20.77,55.33],[20.77,54.02],[19.88,54.02],[19.88,53.08],[15.85,53.08],[15.75,53.52],[15.75,53.08],[10.35,53.08],[10.35,55.38],[10.35,55.38]]]}},{"type":"Feature","properties":{"area_m2":21.6},"geometry":{"type":"Polygon","coordinates":[[[27.15,52.61],[30.03,52.61],[29.73,50.9],[29.18,49.65],[28.28,48.35],[26.55,47.02],[23.89,46.27],[23.89,49.4],[25.98,50.25],[26.78,51.3],[27.15,52.62],[27.15,52.61]]]}},{"type":"Feature","properties":{"area_m2":21.6},"geometry":{"type":"Polygon","coordinates":[[[68.3,41.41],[70.23,41.41],[70.23,25.85],[70.0,25.71],[68.28,25.71],[68.28,31.1],[69.33,31.1],[69.33,39.65],[68.29,39.65],[68.29,41.48],[68.3,41.41]]]}},{"type":"Feature","properties":{"area_m2":20.8},"geometry":{"type":"Polygon","coordinates":[[[13.6,49.38],[20.16,49.38],[20.16,46.28],[13.3,46.28],[13.6,49.38],[13.6,49.38]]]}},{"type":"Feature","properties":{"area_m2":20.3},"geometry":{"type":"Polygon","coordinates":[[[0.6,67.05],[12.41,67.05],[12.41,66.86],[7.05,66.86],[7.05,64.03],[0.65,64.03],[0.65,67.12],[0.6,67.05]]]}},{"type":"Feature","properties":{"area_m2":20.3},"geometry":{"type":"Polygon","coordinates":[[[10.35,63.33],[20.77,63.33],[20.77,60.65],[10.35,62.12],[10.35,63.33],[10.35,63.33]]]}},{"type":"Feature","properties":{"area_m2":20.2},"geometry":{"type":"Polygon","coordinates":[[[84.65,41.51],[86.42,41.51],[86.42,36.1],[85.38,36.1],[85.38,33.5],[85.08,33.5],[85.38,33.05],[85.38,27.55],[86.41,27.55],[86.41,25.82],[84.56,25.82],[84.56,41.52],[84.65,41.51]]]}},{"type":"Feature","properties":{"area_m2":20.1},"geometry":{"type":"Polygon","coordinates":[[[53.05,33.48],[54.01,32.4],[54.01,22.54],[52.08,22.54],[52.08,32.4],[53.05,33.48],[53.05,33.48]]]}},{"type":"Feature","properties":{"area_m2":20.0},"geometry":{"type":"Polygon","coordinates":[[[52.1,44.66],[54.02,44.66],[54.02,34.85],[53.05,33.73],[52.09,34.85],[52.09,44.68],[52.1,44.66]]]}},{"type":"Feature","properties":{"area_m2":19.0},"geometry":{"type":"Polygon","coordinates":[[[8.8,60.01],[9.36,60.01],[9.36,55.6],[9.03,55.6],[9.03,53.72],[8.43,53.72],[8.8,52.91],[9.38,52.91],[9.38,49.66],[8.45,49.66],[7.33,50.4],[7.33,59.25],[8.9,60.02],[8.9,56.88],[8.8,60.01]]]}},{"type":"Feature","properties":{"area_m2":17.5},"geometry":{"type":"Polygon","coordinates":[[[48.85,38.18],[51.88,34.8],[51.88,32.4],[48.85,29.03],[48.85,38.18],[48.85,38.18]]]}},{"type":"Feature","properties":{"area_m2":17.5},"geometry":{"type":"Polygon","coordinates":[[[31.7,21.12],[36.79,21.12],[36.79,16.75],[33.77,16.75],[33.77,19.04],[31.7,19.04],[31.7,21.12],[31.7,21.12]]]}},{"type":"Feature","properties":{"area_m2":17.4},"geometry":{"type":"Polygon","coordinates":[[[42.9,53.61],[43.58,53.61],[44.6,50.02],[47.2,50.02],[47.2,49.75],[48.15,49.75],[48.15,50.08],[50.75,50.08],[51.68,53.54],[52.41,53.54],[52.41,50.45],[52.08,49.03],[43.25,49.03],[42.89,50.45],[42.89,53.62],[42.9,53.61]]]}},{"type":"Feature","properties":{"area_m2":17.4},"geometry":{"type":"Polygon","coordinates":[[[75.3,53.56],[76.03,53.56],[77.0,50.02],[79.6,50.02],[79.6,49.75],[80.55,49.75],[80.55,50.08],[83.15,50.08],[84.08,53.54],[84.81,53.54],[84.81,50.45],[84.48,49.03],[75.65,49.03],[75.29,50.45],[75.29,53.62],[75.3,53.56]]]}},{"type":"Feature","properties":{"area_m2":16.6},"geometry":{"type":"Polygon","coordinates":[[[23.9,60.02],[25.2,59.73],[26.07,59.05],[26.07,53.74],[21.15,53.84],[21.88,53.84],[21.38,54.7],[21.85,55.36],[23.86,55.36],[23.86,60.02],[23.9,60.02]]]}},{"type":"Feature","properties":{"area_m2":15.9},"geometry":{"type":"Polygon","coordinates":[[[60.62,59.88],[60.62,58.77],[57.48,58.0],[57.48,54.95],[57.15,54.95],[57.15,54.0],[57.43,54.0],[57.43,50.95],[60.73,50.12],[60.73,49.08],[56.45,50.1],[56.45,58.9],[60.55,59.88],[60.62,59.88]]]}},{"type":"Feature","properties":{"area_m2":15.9},"geometry":{"type":"Polygon","coordinates":[[[47.8,3.18],[64.88,2.25],[47.8,1.32],[47.8,3.18],[47.8,3.18]]]}},{"type":"Feature","properties":{"area_m2":15.8},"geometry":{"type":"Polygon","coordinates":[[[66.95,59.83],[71.25,58.85],[71.25,50.05],[67.08,49.02],[67.08,50.18],[70.23,50.95],[70.23,53.95],[70.56,53.95],[70.56,54.9],[70.28,54.9],[70.28,58.0],[66.97,58.83],[66.97,59.83],[66.95,59.83]]]}},{"type":"Feature","properties":{"area_m2":14.5},"geometry":{"type":"Polygon","coordinates":[[[95.5,3.76],[96.06,3.76],[96.06,0.72],[87.17,1.21],[91.03,1.21],[91.03,3.52],[95.5,3.77],[95.5,3.76]]]}},{"type":"Feature","properties":{"area_m2":14.0},"geometry":{"type":"Polygon","coordinates":[[[20.9,68.83],[31.41,67.78],[31.41,66.98],[20.85,66.98],[20.85,68.83],[20.9,68.83]]]}},{"type":"Feature","properties":{"area_m2":14.0},"geometry":{"type":"Polygon","coordinates":[[[47.7,62.33],[51.05,62.33],[51.93,58.75],[52.28,58.38],[52.28,58.68],[53.05,58.68],[53.05,58.27],[51.05,58.27],[50.33,61.27],[48.1,61.27],[48.1,61.6],[47.15,61.6],[47.15,61.27],[45.05,61.27],[44.33,58.35],[42.28,58.35],[42.28,58.77],[43.38,58.77],[44.2,62.3],[47.7,62.3],[47.7,62.33]]]}},{"type":"Feature","properties":{"area_m2":14.0},"geometry":{"type":"Polygon","coordinates":[[[61.25,59.87],[61.62,59.87],[61.62,57.8],[58.69,57.08],[58.69,54.95],[58.36,54.95],[58.36,54.0],[58.69,54.0],[58.69,51.77],[61.66,51.05],[61.66,49.09],[61.23,49.09],[61.23,50.18],[57.65,51.0],[57.65,57.9],[61.2,58.73],[61.2,59.22],[61.58,59.31],[61.24,59.31],[61.24,59.88],[61.25,59.87]]]}},{"type":"Feature","properties":{"area_m2":14.0},"geometry":{"type":"Polygon","coordinates":[[[66.05,59.81],[66.46,59.81],[66.46,58.77],[70.06,57.95],[70.06,51.05],[66.5,50.23],[66.5,49.03],[66.08,49.03],[66.08,51.15],[69.03,51.9],[69.03,53.95],[69.35,53.95],[69.35,54.9],[69.02,54.9],[69.02,57.18],[66.04,57.9],[66.04,59.83],[66.05,59.81]]]}},{"type":"Feature","properties":{"area_m2":13.5},"geometry":{"type":"Polygon","coordinates":[[[75.3,54.51],[76.98,54.51],[77.83,51.31],[79.6,51.31],[79.6,50.95],[80.55,50.95],[80.55,51.27],[82.2,51.27],[83.08,54.42],[84.28,54.42],[83.05,50.25],[77.1,50.25],[76.08,54.06],[75.3,54.06],[75.3,54.52],[75.3,54.51]]]}},{"type":"Feature","properties":{"area_m2":13.5},"geometry":{"type":"Polygon","coordinates":[[[53.9,17.71],[54.73,17.71],[54.73,16.4],[54.48,16.25],[54.8,15.75],[62.08,15.75],[62.08,16.25],[62.43,16.35],[62.12,16.35],[62.12,17.55],[62.3,17.66],[63.22,17.66],[63.22,14.75],[53.63,14.75],[53.63,17.5],[53.9,17.82],[55.05,15.72],[54.77,15.25],[55.05,14.97],[55.52,15.25],[55.05,15.72],[53.9,17.71]]]}},{"type":"Feature","properties":{"area_m2":13.5},"geometry":{"type":"Polygon","coordinates":[[[75.5,17.71],[76.33,17.71],[76.33,16.4],[76.08,16.25],[76.4,15.75],[83.69,15.75],[83.69,16.25],[84.03,16.35],[83.73,16.35],[83.73,17.55],[83.9,17.66],[84.81,17.66],[84.81,14.75],[75.24,14.75],[75.24,17.5],[75.5,17.82],[76.65,15.72],[76.38,15.25],[76.65,14.97],[77.12,15.25],[76.65,15.72],[75.5,17.71]]]}},{"type":"Feature","properties":{"area_m2":13.4},"geometry":{"type":"Polygon","coordinates":[[[42.9,54.51],[44.58,54.51],[45.43,51.31],[47.2,51.31],[47.2,50.95],[48.15,50.95],[48.15,51.27],[49.8,51.27],[50.68,54.42],[51.88,54.42],[50.65,50.25],[44.7,50.25],[43.73,54.01],[42.9,54.01],[42.9,54.52],[42.9,54.51]]]}},{"type":"Feature","properties":{"area_m2":13.2},"geometry":{"type":"Polygon","coordinates":[[[43.1,17.71],[43.93,17.71],[43.93,16.4],[43.68,16.25],[44.0,15.75],[50.69,15.75],[50.77,15.25],[50.77,14.97],[51.33,15.25],[51.08,15.7],[51.62,16.38],[51.33,16.38],[51.33,17.66],[52.2,17.66],[52.43,17.55],[52.43,14.77],[42.84,14.77],[42.84,17.5],[43.1,17.82],[43.1,17.71]]]}},{"type":"Feature","properties":{"area_m2":13.2},"geometry":{"type":"Polygon","coordinates":[[[64.7,17.71],[65.53,17.71],[65.53,16.4],[65.28,16.25],[65.6,15.75],[72.28,15.75],[72.37,15.25],[72.37,14.97],[72.92,15.25],[72.67,15.7],[73.23,16.38],[72.92,16.38],[72.92,17.66],[73.8,17.66],[74.03,17.55],[74.03,14.77],[64.44,14.77],[64.44,17.5],[64.7,17.82],[64.7,17.71]]]}},{"type":"Feature","properties":{"area_m2":13.1},"geometry":{"type":"Polygon","coordinates":[[[35.23,54.88],[35.23,49.77],[36.72,49.77],[36.78,50.62],[36.78,49.58],[31.46,49.58],[31.46,45.89],[36.88,45.86],[34.47,45.86],[34.47,43.69],[33.79,43.69],[33.79,45.77],[29.05,45.77],[29.05,43.69],[28.39,43.69],[28.39,45.77],[23.66,45.77],[23.66,43.69],[23.0,43.69],[23.0,45.83],[18.27,45.83],[18.27,43.69],[17.59,43.69],[17.59,45.83],[12.88,45.83],[12.88,43.69],[12.21,43.69],[12.21,45.83],[7.48,45.83],[7.48,43.69],[6.84,43.69],[6.84,45.8],[5.38,45.86],[31.24,45.86],[31.24,53.05],[31.49,53.05],[31.49,49.75],[35.15,49.75],[35.15,54.88],[35.23,54.88]]]}},{"type":"Feature","properties":{"area_m2":13.1},"geometry":{"type":"Polygon","coordinates":[[[37.72,44.08],[37.77,43.8],[37.71,35.0],[37.65,41.73],[37.65,34.95],[37.23,34.95],[37.6,34.52],[37.83,34.6],[37.83,32.6],[37.65,32.73],[37.27,32.35],[37.59,32.25],[37.71,25.48],[37.75,32.25],[37.75,23.18],[37.52,23.2],[37.18,23.8],[37.52,24.65],[36.98,24.65],[37.55,24.9],[37.55,25.4],[36.95,25.75],[36.94,33.65],[37.02,41.5],[37.1,34.52],[37.1,41.6],[37.54,42.1],[37.54,42.54],[36.93,42.62],[37.58,42.62],[37.18,43.45],[37.6,44.08],[37.72,44.08]]]}},{"type":"Feature","properties":{"area_m2":13.1},"geometry":{"type":"Polygon","coordinates":[[[69.4,4.03],[79.97,4.03],[79.97,3.1],[69.4,2.48],[69.4,4.03],[69.4,4.03]]]}},{"type":"Feature","properties":{"area_m2":13.0},"geometry":{"type":"Polygon","coordinates":[[[69.4,2.02],[79.65,1.44],[79.98,1.44],[79.98,0.49],[69.4,0.49],[69.4,2.02],[69.4,2.02]]]}},{"type":"Feature","properties":{"area_m2":12.2},"geometry":{"type":"Polygon","coordinates":[[[99.2,3.96],[100.03,3.96],[100.03,0.64],[96.29,0.64],[96.29,3.87],[99.2,3.87],[99.2,3.96]]]}},{"type":"Feature","properties":{"area_m2":12.1},"geometry":{"type":"Polygon","coordinates":[[[57.55,34.26],[59.37,34.26],[59.37,26.68],[57.53,28.7],[57.53,34.27],[57.55,34.26]]]}},{"type":"Feature","properties":{"area_m2":11.9},"geometry":{"type":"Polygon","coordinates":[[[30.02,51.33],[30.02,48.92],[31.06,48.92],[31.06,46.13],[24.07,46.13],[26.45,46.77],[28.1,47.93],[28.98,48.9],[30.0,51.33],[30.02,51.33]]]}},{"type":"Feature","properties":{"area_m2":11.8},"geometry":{"type":"Polygon","coordinates":[[[12.8,69.62],[17.91,69.12],[17.91,67.09],[12.75,67.09],[12.75,69.62],[12.8,69.62]]]}},{"type":"Feature","properties":{"area_m2":11.3},"geometry":{"type":"Polygon","coordinates":[[[33.85,49.43],[36.75,49.43],[36.75,46.13],[31.63,46.13],[31.63,46.92],[33.84,46.92],[33.84,49.43],[33.85,49.43]]]}},{"type":"Feature","properties":{"area_m2":11.2},"geometry":{"type":"Polygon","coordinates":[[[20.95,69.78],[31.49,69.23],[31.49,67.95],[21.1,68.92],[20.91,69.0],[20.91,69.78],[20.95,69.78]]]}},{"type":"Feature","properties":{"area_m2":11.2},"geometry":{"type":"Polygon","coordinates":[[[98.25,9.93],[99.05,9.28],[99.3,9.93],[99.85,9.37],[100.29,9.37],[100.29,9.93],[100.75,9.37],[101.28,9.37],[101.28,6.67],[100.7,6.67],[100.25,5.92],[98.65,5.92],[98.5,6.17],[98.3,5.92],[96.94,5.92],[96.94,6.4],[96.64,6.4],[96.64,7.17],[98.3,7.17],[98.3,7.62],[100.22,7.62],[100.22,8.07],[98.3,8.07],[98.3,9.93],[98.25,9.93]]]}},{"type":"Feature","properties":{"area_m2":10.8},"geometry":{"type":"Polygon","coordinates":[[[10.35,61.98],[20.77,60.48],[20.77,60.19],[10.35,60.19],[10.35,61.98],[10.35,61.98]]]}},{"type":"Feature","properties":{"area_m2":10.3},"geometry":{"type":"Polygon","coordinates":[[[13.95,52.58],[20.16,52.58],[20.16,51.55],[13.7,50.33],[13.95,52.58],[13.95,52.58]]]}},{"type":"Feature","properties":{"area_m2":10.3},"geometry":{"type":"Polygon","coordinates":[[[32.65,39.72],[33.47,39.72],[33.47,27.49],[32.63,27.49],[32.63,39.73],[32.65,39.72]]]}},{"type":"Feature","properties":{"area_m2":9.6},"geometry":{"type":"Polygon","coordinates":[[[42.85,12.15],[52.41,12.15],[52.41,11.13],[52.0,11.13],[51.9,11.43],[51.9,11.15],[42.85,11.15],[42.85,12.18],[42.85,12.15]]]}},{"type":"Feature","properties":{"area_m2":9.6},"geometry":{"type":"Polygon","coordinates":[[[53.65,12.15],[63.22,12.15],[63.22,11.13],[62.8,11.13],[62.7,11.43],[62.7,11.15],[53.65,11.15],[53.65,12.18],[53.65,12.15]]]}},{"type":"Feature","properties":{"area_m2":9.6},"geometry":{"type":"Polygon","coordinates":[[[64.45,12.15],[74.02,12.15],[74.02,11.13],[73.6,11.13],[73.5,11.43],[73.5,11.15],[64.45,11.15],[64.45,12.18],[64.45,12.15]]]}},{"type":"Feature","properties":{"area_m2":9.6},"geometry":{"type":"Polygon","coordinates":[[[75.25,12.15],[84.81,12.15],[84.81,11.13],[84.4,11.13],[84.3,11.43],[84.3,11.15],[75.25,11.15],[75.25,12.18],[75.25,12.15]]]}},{"type":"Feature","properties":{"area_m2":9.5},"geometry":{"type":"Polygon","coordinates":[[[42.85,13.36],[52.41,13.36],[52.41,12.37],[42.85,12.37],[42.85,13.38],[42.85,13.36]]]}},{"type":"Feature","properties":{"area_m2":9.5},"geometry":{"type":"Polygon","coordinates":[[[53.65,13.36],[63.22,13.36],[63.22,12.37],[53.65,12.37],[53.65,13.38],[53.65,13.36]]]}},{"type":"Feature","properties":{"area_m2":9.5},"geometry":{"type":"Polygon","coordinates":[[[64.45,13.36],[74.02,13.36],[74.02,12.37],[64.45,12.37],[64.45,13.38],[64.45,13.36]]]}},{"type":"Feature","properties":{"area_m2":9.5},"geometry":{"type":"Polygon","coordinates":[[[75.25,13.36],[84.81,13.36],[84.81,12.37],[75.25,12.37],[75.25,13.38],[75.25,13.36]]]}},{"type":"Feature","properties":{"area_m2":9.4},"geometry":{"type":"Polygon","coordinates":[[[48.61,28.48],[48.61,22.54],[46.69,22.54],[46.69,26.35],[48.6,28.48],[48.61,28.48]]]}},{"type":"Feature","properties":{"area_m2":9.4},"geometry":{"type":"Polygon","coordinates":[[[42.85,14.55],[52.41,14.55],[52.41,13.57],[42.85,13.57],[42.85,14.58],[42.85,14.55]]]}},{"type":"Feature","properties":{"area_m2":9.4},"geometry":{"type":"Polygon","coordinates":[[[53.65,14.55],[63.22,14.55],[63.22,13.57],[53.65,13.57],[53.65,14.58],[53.65,14.55]]]}},{"type":"Feature","properties":{"area_m2":9.4},"geometry":{"type":"Polygon","coordinates":[[[64.45,14.55],[74.02,14.55],[74.02,13.57],[64.45,13.57],[64.45,14.58],[64.45,14.55]]]}},{"type":"Feature","properties":{"area_m2":9.4},"geometry":{"type":"Polygon","coordinates":[[[75.25,14.55],[84.81,14.55],[84.81,13.57],[75.25,13.57],[75.25,14.58],[75.25,14.55]]]}},{"type":"Feature","properties":{"area_m2":9.3},"geometry":{"type":"Polygon","coordinates":[[[46.7,44.66],[48.61,44.66],[48.61,38.73],[46.69,40.9],[46.69,44.68],[46.7,44.66]]]}},{"type":"Feature","properties":{"area_m2":9.1},"geometry":{"type":"Polygon","coordinates":[[[38.11,44.08],[38.11,34.6],[38.41,34.6],[38.44,35.55],[38.44,37.38],[39.58,37.38],[39.58,29.85],[38.52,29.85],[38.45,31.6],[38.45,32.6],[38.16,32.6],[38.13,23.18],[38.13,44.08],[38.11,44.08]]]}},{"type":"Feature","properties":{"area_m2":9.0},"geometry":{"type":"Polygon","coordinates":[[[57.55,28.43],[59.37,26.4],[59.37,22.54],[57.53,22.54],[57.53,28.43],[57.55,28.43]]]}},{"type":"Feature","properties":{"area_m2":9.0},"geometry":{"type":"Polygon","coordinates":[[[42.85,10.95],[51.97,10.95],[51.97,9.96],[42.85,9.96],[42.85,10.97],[42.85,10.95]]]}},{"type":"Feature","properties":{"area_m2":9.0},"geometry":{"type":"Polygon","coordinates":[[[53.65,10.95],[62.76,10.95],[62.76,9.96],[53.65,9.96],[53.65,10.97],[53.65,10.95]]]}},{"type":"Feature","properties":{"area_m2":9.0},"geometry":{"type":"Polygon","coordinates":[[[64.45,10.95],[73.56,10.95],[73.56,9.96],[64.45,9.96],[64.45,10.97],[64.45,10.95]]]}},{"type":"Feature","properties":{"area_m2":9.0},"geometry":{"type":"Polygon","coordinates":[[[75.25,10.95],[84.36,10.95],[84.36,9.96],[75.25,9.96],[75.25,10.97],[75.25,10.95]]]}},{"type":"Feature","properties":{"area_m2":8.6},"geometry":{"type":"Polygon","coordinates":[[[12.9,49.93],[13.21,49.93],[13.21,49.6],[12.83,46.13],[10.39,46.13],[10.39,49.37],[12.35,49.37],[12.11,49.05],[12.11,48.77],[12.88,49.45],[12.58,49.89],[12.9,49.89],[12.9,49.93]]]}},{"type":"Feature","properties":{"area_m2":8.1},"geometry":{"type":"Polygon","coordinates":[[[84.4,3.17],[85.22,3.17],[85.22,1.32],[80.19,1.6],[80.19,2.93],[84.4,3.18],[84.4,3.17]]]}},{"type":"Feature","properties":{"area_m2":7.9},"geometry":{"type":"Polygon","coordinates":[[[10.4,52.58],[13.39,52.58],[13.39,50.09],[12.45,50.09],[12.12,50.27],[12.12,49.83],[10.4,49.83],[10.4,52.58],[10.4,52.58]]]}},{"type":"Feature","properties":{"area_m2":7.8},"geometry":{"type":"Polygon","coordinates":[[[81.25,25.53],[83.01,25.53],[83.01,25.0],[83.65,24.79],[83.95,24.79],[83.97,25.45],[83.97,22.45],[81.24,22.45],[81.24,25.53],[81.25,25.53]]]}},{"type":"Feature","properties":{"area_m2":7.5},"geometry":{"type":"Polygon","coordinates":[[[70.8,44.72],[73.48,44.72],[73.48,41.74],[71.8,41.74],[71.45,42.39],[70.79,42.39],[70.79,44.73],[70.8,44.72]]]}},{"type":"Feature","properties":{"area_m2":7.5},"geometry":{"type":"Polygon","coordinates":[[[80.2,1.43],[96.08,0.49],[80.2,0.49],[80.2,1.43],[80.2,1.43]]]}},{"type":"Feature","properties":{"area_m2":7.3},"geometry":{"type":"Polygon","coordinates":[[[98.35,59.38],[101.27,59.38],[101.27,56.86],[100.75,56.86],[100.3,56.27],[100.05,56.98],[99.3,56.27],[99.05,56.98],[98.25,56.27],[97.62,57.15],[98.34,57.15],[98.34,58.29],[100.16,58.29],[100.16,58.83],[98.35,58.83],[98.35,59.38],[98.35,59.38]]]}},{"type":"Feature","properties":{"area_m2":7.3},"geometry":{"type":"Polygon","coordinates":[[[79.75,2.93],[79.97,2.9],[79.97,1.57],[69.38,2.2],[79.75,2.93],[79.75,2.93]]]}},{"type":"Feature","properties":{"area_m2":7.0},"geometry":{"type":"Polygon","coordinates":[[[11.05,42.26],[14.08,42.26],[14.08,39.94],[11.05,39.94],[11.05,42.27],[11.05,42.26]]]}},{"type":"Feature","properties":{"area_m2":7.0},"geometry":{"type":"Polygon","coordinates":[[[16.45,42.26],[19.48,42.26],[19.48,39.94],[16.45,39.94],[16.45,42.27],[16.45,42.26]]]}},{"type":"Feature","properties":{"area_m2":7.0},"geometry":{"type":"Polygon","coordinates":[[[21.85,42.26],[24.88,42.26],[24.88,39.95],[21.84,39.95],[21.84,42.27],[21.85,42.26]]]}},{"type":"Feature","properties":{"area_m2":7.0},"geometry":{"type":"Polygon","coordinates":[[[27.25,42.26],[30.28,42.26],[30.28,39.94],[27.25,39.94],[27.25,42.27],[27.25,42.26]]]}},{"type":"Feature","properties":{"area_m2":6.9},"geometry":{"type":"Polygon","coordinates":[[[11.05,27.28],[14.07,27.28],[14.07,24.99],[11.05,24.99],[11.05,27.28],[11.05,27.28]]]}},{"type":"Feature","properties":{"area_m2":6.9},"geometry":{"type":"Polygon","coordinates":[[[16.45,27.28],[19.46,27.28],[19.46,24.99],[16.45,24.99],[16.45,27.28],[16.45,27.28]]]}},{"type":"Feature","properties":{"area_m2":6.9},"geometry":{"type":"Polygon","coordinates":[[[21.85,27.28],[24.87,27.28],[24.87,25.0],[21.84,25.0],[21.84,27.28],[21.85,27.28]]]}},{"type":"Feature","properties":{"area_m2":6.9},"geometry":{"type":"Polygon","coordinates":[[[27.25,27.28],[30.27,27.28],[30.27,24.99],[27.25,24.99],[27.25,27.28],[27.25,27.28]]]}},{"type":"Feature","properties":{"area_m2":6.9},"geometry":{"type":"Polygon","coordinates":[[[76.22,25.53],[76.22,24.84],[76.88,24.84],[77.15,25.46],[78.58,25.46],[78.58,22.45],[76.14,22.45],[76.14,25.53],[76.22,25.53]]]}},{"type":"Feature","properties":{"area_m2":6.8},"geometry":{"type":"Polygon","coordinates":[[[23.9,52.61],[26.86,52.61],[26.86,51.75],[26.03,50.55],[24.2,49.59],[23.89,49.59],[23.89,52.62],[23.9,52.61]]]}},{"type":"Feature","properties":{"area_m2":6.8},"geometry":{"type":"Polygon","coordinates":[[[70.83,25.53],[70.83,24.84],[71.48,24.84],[71.75,25.48],[73.15,25.48],[73.15,22.44],[70.74,22.44],[70.74,25.53],[70.83,25.53]]]}},{"type":"Feature","properties":{"area_m2":6.5},"geometry":{"type":"Polygon","coordinates":[[[7.35,50.18],[8.4,49.49],[9.37,49.49],[9.37,46.27],[7.34,46.65],[7.34,50.18],[7.35,50.18]]]}},{"type":"Feature","properties":{"area_m2":6.3},"geometry":{"type":"Polygon","coordinates":[[[76.2,44.72],[78.53,44.72],[78.47,41.75],[78.47,42.42],[77.8,42.42],[77.55,41.78],[76.19,41.78],[76.19,44.73],[76.2,44.72]]]}},{"type":"Feature","properties":{"area_m2":6.2},"geometry":{"type":"Polygon","coordinates":[[[8.75,63.31],[9.33,63.31],[9.33,60.25],[7.34,59.48],[7.34,63.04],[7.61,63.04],[7.61,62.61],[8.05,62.61],[8.75,63.33],[8.75,63.31]]]}},{"type":"Feature","properties":{"area_m2":6.2},"geometry":{"type":"Polygon","coordinates":[[[81.6,44.73],[83.9,44.73],[83.85,41.73],[83.85,42.42],[83.2,42.42],[82.95,41.77],[81.6,41.77],[81.6,44.73],[81.6,44.73]]]}},{"type":"Feature","properties":{"area_m2":6.2},"geometry":{"type":"Polygon","coordinates":[[[44.45,16.98],[44.83,16.68],[44.83,16.95],[50.79,16.95],[50.79,15.96],[44.44,15.96],[44.44,16.5],[44.73,16.5],[44.45,16.98],[44.45,16.98]]]}},{"type":"Feature","properties":{"area_m2":6.2},"geometry":{"type":"Polygon","coordinates":[[[55.25,16.98],[55.62,16.68],[55.62,16.95],[61.59,16.95],[61.59,15.96],[55.24,15.96],[55.24,16.5],[55.52,16.5],[55.25,16.98],[55.25,16.98]]]}},{"type":"Feature","properties":{"area_m2":6.2},"geometry":{"type":"Polygon","coordinates":[[[76.85,16.98],[77.22,16.68],[77.22,16.95],[83.19,16.95],[83.19,15.96],[76.84,15.96],[76.84,16.5],[77.12,16.5],[76.85,16.98],[76.85,16.98]]]}},{"type":"Feature","properties":{"area_m2":6.1},"geometry":{"type":"Polygon","coordinates":[[[66.05,16.98],[66.42,16.68],[66.42,16.95],[72.23,16.95],[72.23,16.6],[72.48,16.4],[72.48,15.96],[66.04,15.96],[66.04,16.5],[66.33,16.5],[66.05,16.98],[66.05,16.98]]]}},{"type":"Feature","properties":{"area_m2":5.9},"geometry":{"type":"Polygon","coordinates":[[[44.5,18.18],[50.84,18.18],[50.84,17.45],[50.5,17.73],[49.95,17.15],[45.33,17.15],[45.33,17.49],[44.54,17.49],[44.54,18.18],[44.5,18.18]]]}},{"type":"Feature","properties":{"area_m2":5.9},"geometry":{"type":"Polygon","coordinates":[[[55.3,18.18],[61.64,18.18],[61.64,17.45],[61.3,17.73],[60.75,17.15],[56.12,17.15],[56.12,17.49],[55.34,17.49],[55.34,18.18],[55.3,18.18]]]}},{"type":"Feature","properties":{"area_m2":5.9},"geometry":{"type":"Polygon","coordinates":[[[66.1,18.18],[72.44,18.18],[72.44,17.45],[72.1,17.73],[71.55,17.15],[66.92,17.15],[66.92,17.49],[66.13,17.49],[66.13,18.18],[66.1,18.18]]]}},{"type":"Feature","properties":{"area_m2":5.9},"geometry":{"type":"Polygon","coordinates":[[[76.9,18.18],[83.24,18.18],[83.24,17.45],[82.9,17.73],[82.35,17.15],[77.72,17.15],[77.72,17.49],[76.94,17.49],[76.94,18.18],[76.9,18.18]]]}},{"type":"Feature","properties":{"area_m2":5.8},"geometry":{"type":"Polygon","coordinates":[[[79.1,25.52],[81.02,25.52],[81.02,22.54],[79.09,22.54],[79.09,25.53],[79.1,25.52]]]}},{"type":"Feature","properties":{"area_m2":5.7},"geometry":{"type":"Polygon","coordinates":[[[19.95,50.88],[20.16,50.85],[20.16,49.59],[13.63,49.59],[13.63,50.02],[19.95,50.88],[19.95,50.88]]]}},{"type":"Feature","properties":{"area_m2":5.6},"geometry":{"type":"Polygon","coordinates":[[[23.9,62.51],[25.98,62.51],[25.53,61.95],[26.06,62.2],[26.06,59.33],[25.25,59.88],[23.89,60.25],[23.89,62.52],[23.9,62.51]]]}},{"type":"Feature","properties":{"area_m2":5.6},"geometry":{"type":"Polygon","coordinates":[[[73.7,44.66],[75.61,44.66],[75.61,41.74],[73.69,41.74],[73.69,44.68],[73.7,44.66]]]}},{"type":"Feature","properties":{"area_m2":5.4},"geometry":{"type":"Polygon","coordinates":[[[21.15,59.97],[22.87,59.97],[22.87,56.89],[21.13,56.89],[21.13,59.98],[21.15,59.97]]]}},{"type":"Feature","properties":{"area_m2":5.4},"geometry":{"type":"Polygon","coordinates":[[[43.45,44.72],[46.47,44.72],[46.47,41.12],[43.45,44.73],[43.45,44.72]]]}},{"type":"Feature","properties":{"area_m2":5.4},"geometry":{"type":"Polygon","coordinates":[[[46.47,26.07],[46.47,22.54],[43.45,22.54],[46.45,26.07],[46.47,26.07]]]}},{"type":"Feature","properties":{"area_m2":5.4},"geometry":{"type":"Polygon","coordinates":[[[59.65,26.07],[62.68,22.55],[59.63,22.55],[59.63,26.07],[59.65,26.07]]]}},{"type":"Feature","properties":{"area_m2":5.3},"geometry":{"type":"Polygon","coordinates":[[[92.8,53.31],[93.38,53.31],[93.38,52.4],[93.7,52.1],[95.31,52.1],[95.31,53.25],[96.08,53.25],[96.08,50.99],[92.8,50.99],[92.8,53.33],[92.8,53.31]]]}},{"type":"Feature","properties":{"area_m2":5.2},"geometry":{"type":"Polygon","coordinates":[[[21.2,49.37],[22.87,49.37],[22.87,46.28],[21.19,46.28],[21.19,49.38],[21.2,49.37]]]}},{"type":"Feature","properties":{"area_m2":5.2},"geometry":{"type":"Polygon","coordinates":[[[68.3,25.53],[69.3,25.53],[69.6,24.84],[70.22,24.84],[70.22,22.54],[68.29,22.54],[68.29,25.53],[68.3,25.53]]]}},{"type":"Feature","properties":{"area_m2":5.2},"geometry":{"type":"Polygon","coordinates":[[[73.7,25.53],[74.7,25.53],[75.0,24.84],[75.61,24.84],[75.61,22.54],[73.69,22.54],[73.69,25.53],[73.7,25.53]]]}},{"type":"Feature","properties":{"area_m2":5.2},"geometry":{"type":"Polygon","coordinates":[[[85.35,25.46],[86.41,25.46],[86.41,22.54],[84.48,22.54],[84.48,24.7],[85.08,24.95],[85.35,25.48],[85.35,25.46]]]}},{"type":"Feature","properties":{"area_m2":5.1},"geometry":{"type":"Polygon","coordinates":[[[68.3,44.66],[70.23,44.66],[70.23,42.44],[69.6,42.44],[69.35,41.78],[68.29,41.78],[68.29,44.68],[68.3,44.66]]]}},{"type":"Feature","properties":{"area_m2":5.1},"geometry":{"type":"Polygon","coordinates":[[[79.1,44.66],[81.02,44.66],[81.02,41.73],[80.0,41.73],[79.65,42.44],[79.09,42.44],[79.09,44.68],[79.1,44.66]]]}},{"type":"Feature","properties":{"area_m2":5.1},"geometry":{"type":"Polygon","coordinates":[[[84.5,44.66],[86.41,44.66],[86.41,41.73],[85.4,41.73],[85.05,42.44],[84.49,42.44],[84.49,44.68],[84.5,44.66]]]}},{"type":"Feature","properties":{"area_m2":5.0},"geometry":{"type":"Polygon","coordinates":[[[31.7,52.22],[32.25,52.22],[32.25,51.3],[32.6,51.0],[34.1,51.0],[34.4,52.18],[34.97,52.18],[34.97,49.94],[31.7,49.94],[31.7,52.23],[31.7,52.22]]]}},{"type":"Feature","properties":{"area_m2":4.9},"geometry":{"type":"Polygon","coordinates":[[[45.1,3.25],[47.56,3.25],[47.56,1.27],[45.1,1.27],[45.1,3.33],[45.1,3.25]]]}},{"type":"Feature","properties":{"area_m2":4.8},"geometry":{"type":"Polygon","coordinates":[[[18.2,69.08],[20.6,68.83],[20.6,67.01],[18.13,67.01],[18.13,69.08],[18.2,69.08]]]}},{"type":"Feature","properties":{"area_m2":4.8},"geometry":{"type":"Polygon","coordinates":[[[7.0,58.88],[7.0,50.77],[6.33,51.75],[6.28,52.85],[6.35,56.75],[6.35,57.9],[7.0,58.88],[7.0,58.88]]]}},{"type":"Feature","properties":{"area_m2":4.7},"geometry":{"type":"Polygon","coordinates":[[[85.67,35.12],[85.79,34.83],[85.79,35.11],[86.42,35.11],[86.42,28.1],[86.31,27.95],[86.31,32.05],[86.0,32.23],[86.0,27.74],[85.58,27.74],[85.58,33.0],[85.83,33.1],[85.59,33.25],[85.59,35.12],[85.67,35.12]]]}},{"type":"Feature","properties":{"area_m2":4.7},"geometry":{"type":"Polygon","coordinates":[[[92.75,16.11],[96.03,16.11],[96.03,13.9],[95.48,13.9],[95.48,14.7],[95.1,15.18],[93.7,15.18],[93.33,14.7],[93.33,13.94],[92.75,13.94],[92.75,16.12],[92.75,16.11]]]}},{"type":"Feature","properties":{"area_m2":4.6},"geometry":{"type":"Polygon","coordinates":[[[31.7,16.11],[34.93,16.11],[34.93,13.9],[34.33,13.9],[34.33,14.8],[34.0,15.18],[32.6,15.18],[32.27,14.85],[32.27,13.94],[31.7,13.94],[31.7,16.12],[31.7,16.11]]]}},{"type":"Feature","properties":{"area_m2":4.5},"geometry":{"type":"Polygon","coordinates":[[[8.9,42.26],[10.83,42.26],[10.83,39.95],[8.89,39.95],[8.89,42.27],[8.9,42.26]]]}},{"type":"Feature","properties":{"area_m2":4.5},"geometry":{"type":"Polygon","coordinates":[[[14.3,42.26],[16.23,42.26],[16.23,39.95],[14.29,39.95],[14.29,42.27],[14.3,42.26]]]}},{"type":"Feature","properties":{"area_m2":4.5},"geometry":{"type":"Polygon","coordinates":[[[19.7,42.26],[21.61,42.26],[21.61,39.94],[19.69,39.94],[19.69,42.27],[19.7,42.26]]]}},{"type":"Feature","properties":{"area_m2":4.5},"geometry":{"type":"Polygon","coordinates":[[[25.1,42.26],[27.03,42.26],[27.03,39.95],[25.09,39.95],[25.09,42.27],[25.1,42.26]]]}},{"type":"Feature","properties":{"area_m2":4.5},"geometry":{"type":"Polygon","coordinates":[[[30.5,42.26],[32.41,42.26],[32.41,39.94],[30.49,39.94],[30.49,42.27],[30.5,42.26]]]}},{"type":"Feature","properties":{"area_m2":4.4},"geometry":{"type":"Polygon","coordinates":[[[8.9,27.27],[10.83,27.27],[10.83,25.0],[8.89,25.0],[8.89,27.28],[8.9,27.27]]]}},{"type":"Feature","properties":{"area_m2":4.4},"geometry":{"type":"Polygon","coordinates":[[[14.3,27.27],[16.23,27.27],[16.23,25.0],[14.29,25.0],[14.29,27.28],[14.3,27.27]]]}},{"type":"Feature","properties":{"area_m2":4.4},"geometry":{"type":"Polygon","coordinates":[[[19.7,27.28],[21.6,27.28],[21.6,24.99],[19.69,24.99],[19.69,27.28],[19.7,27.28]]]}},{"type":"Feature","properties":{"area_m2":4.4},"geometry":{"type":"Polygon","coordinates":[[[25.1,27.27],[27.03,27.27],[27.03,25.0],[25.09,25.0],[25.09,27.28],[25.1,27.27]]]}},{"type":"Feature","properties":{"area_m2":4.4},"geometry":{"type":"Polygon","coordinates":[[[30.5,27.28],[32.4,27.28],[32.4,24.99],[30.49,24.99],[30.49,27.28],[30.5,27.28]]]}},{"type":"Feature","properties":{"area_m2":4.3},"geometry":{"type":"Polygon","coordinates":[[[68.85,39.47],[69.12,39.47],[69.01,32.1],[68.91,32.38],[68.91,32.08],[68.29,32.08],[68.29,39.15],[68.41,39.3],[68.41,35.15],[68.6,34.98],[68.85,39.48],[68.85,39.47]]]}},{"type":"Feature","properties":{"area_m2":4.1},"geometry":{"type":"Polygon","coordinates":[[[80.2,4.03],[85.22,4.03],[85.22,3.35],[80.2,3.08],[80.2,4.03],[80.2,4.03]]]}},{"type":"Feature","properties":{"area_m2":4.0},"geometry":{"type":"Polygon","coordinates":[[[88.35,64.78],[90.61,64.78],[90.61,63.02],[88.35,63.02],[88.35,64.83],[88.35,64.78]]]}},{"type":"Feature","properties":{"area_m2":4.0},"geometry":{"type":"Polygon","coordinates":[[[9.6,55.66],[15.96,55.66],[15.86,54.93],[15.86,55.58],[10.25,55.58],[10.25,52.88],[20.32,52.88],[20.32,53.83],[20.91,53.83],[20.91,52.78],[9.6,52.78],[9.6,55.68],[9.6,55.66]]]}},{"type":"Feature","properties":{"area_m2":3.9},"geometry":{"type":"Polygon","coordinates":[[[25.1,24.56],[27.03,24.56],[27.03,22.55],[25.09,22.55],[25.09,24.57],[25.1,24.56]]]}},{"type":"Feature","properties":{"area_m2":3.9},"geometry":{"type":"Polygon","coordinates":[[[30.5,24.56],[32.41,24.56],[32.41,22.54],[30.49,22.54],[30.49,24.57],[30.5,24.56]]]}},{"type":"Feature","properties":{"area_m2":3.8},"geometry":{"type":"Polygon","coordinates":[[[25.1,44.66],[27.03,44.66],[27.03,42.7],[25.09,42.7],[25.09,44.68],[25.1,44.66]]]}},{"type":"Feature","properties":{"area_m2":3.8},"geometry":{"type":"Polygon","coordinates":[[[30.5,44.68],[32.4,44.68],[32.4,42.69],[30.49,42.69],[30.49,44.68],[30.5,44.68]]]}},{"type":"Feature","properties":{"area_m2":3.7},"geometry":{"type":"Polygon","coordinates":[[[85.65,64.92],[87.87,64.92],[87.92,63.65],[87.92,63.25],[85.72,63.25],[85.69,63.8],[85.69,64.97],[85.65,64.92]]]}},{"type":"Feature","properties":{"area_m2":3.6},"geometry":{"type":"Polygon","coordinates":[[[21.15,62.51],[22.88,62.51],[22.88,60.35],[21.13,60.6],[21.13,62.52],[21.15,62.51]]]}},{"type":"Feature","properties":{"area_m2":3.5},"geometry":{"type":"Polygon","coordinates":[[[22.81,51.88],[22.81,49.59],[21.2,49.59],[21.2,51.58],[22.75,51.88],[22.81,51.88]]]}},{"type":"Feature","properties":{"area_m2":3.4},"geometry":{"type":"Polygon","coordinates":[[[91.1,53.51],[92.36,53.51],[92.36,50.99],[90.98,50.99],[91.04,52.7],[91.04,53.52],[91.1,53.51]]]}},{"type":"Feature","properties":{"area_m2":3.2},"geometry":{"type":"Polygon","coordinates":[[[91.05,16.11],[92.31,16.11],[92.31,13.73],[90.93,13.73],[90.99,15.25],[90.99,16.12],[91.05,16.11]]]}},{"type":"Feature","properties":{"area_m2":3.0},"geometry":{"type":"Polygon","coordinates":[[[21.15,53.52],[26.06,53.52],[26.06,52.91],[21.15,52.91],[21.15,53.52],[21.15,53.52]]]}},{"type":"Feature","properties":{"area_m2":3.0},"geometry":{"type":"Polygon","coordinates":[[[96.75,42.73],[100.86,42.73],[100.86,41.74],[100.15,41.74],[100.15,42.17],[99.4,42.17],[99.4,41.68],[99.05,42.17],[98.15,42.17],[97.5,41.68],[96.75,42.27],[96.75,42.73],[96.75,42.73]]]}},{"type":"Feature","properties":{"area_m2":2.8},"geometry":{"type":"Polygon","coordinates":[[[96.95,60.38],[100.35,60.38],[100.7,59.69],[101.17,59.63],[96.6,59.63],[96.95,60.38],[96.95,60.38]]]}},{"type":"Feature","properties":{"area_m2":2.7},"geometry":{"type":"Polygon","coordinates":[[[12.85,70.17],[18.02,69.92],[17.98,69.55],[17.98,69.28],[17.6,69.28],[13.7,69.72],[12.82,69.72],[12.82,70.17],[12.85,70.17]]]}},{"type":"Feature","properties":{"area_m2":2.6},"geometry":{"type":"Polygon","coordinates":[[[26.3,58.73],[26.91,57.05],[26.91,53.74],[26.29,53.74],[26.29,58.73],[26.3,58.73]]]}},{"type":"Feature","properties":{"area_m2":2.6},"geometry":{"type":"Polygon","coordinates":[[[44.55,1.01],[44.87,1.01],[44.87,0.49],[35.27,0.49],[44.55,1.02],[44.55,1.01]]]}},{"type":"Feature","properties":{"area_m2":2.5},"geometry":{"type":"Polygon","coordinates":[[[97.5,56.98],[98.28,56.05],[98.28,54.84],[96.59,54.84],[96.59,56.11],[97.45,56.11],[97.45,56.98],[97.5,56.98]]]}},{"type":"Feature","properties":{"area_m2":2.5},"geometry":{"type":"Polygon","coordinates":[[[11.05,24.57],[14.07,24.57],[14.07,23.74],[11.05,23.74],[11.05,24.57],[11.05,24.57]]]}},{"type":"Feature","properties":{"area_m2":2.5},"geometry":{"type":"Polygon","coordinates":[[[14.3,24.56],[16.23,24.56],[16.23,23.73],[15.89,23.73],[15.89,22.54],[15.2,22.54],[15.2,23.69],[14.3,23.69],[14.3,24.57],[14.3,24.56]]]}},{"type":"Feature","properties":{"area_m2":2.5},"geometry":{"type":"Polygon","coordinates":[[[35.35,16.11],[36.04,16.11],[36.04,14.72],[36.69,15.2],[36.69,13.69],[35.34,13.69],[35.34,16.12],[35.35,16.11]]]}},{"type":"Feature","properties":{"area_m2":2.4},"geometry":{"type":"Polygon","coordinates":[[[31.7,60.08],[32.6,60.08],[33.33,59.45],[33.33,58.9],[32.7,58.23],[32.3,58.23],[31.69,58.9],[31.69,60.08],[31.7,60.08]]]}},{"type":"Feature","properties":{"area_m2":2.4},"geometry":{"type":"Polygon","coordinates":[[[15.15,44.64],[15.93,44.64],[15.93,43.5],[16.21,43.5],[16.21,42.69],[14.29,42.69],[14.29,43.49],[15.21,43.49],[15.21,44.68],[15.15,44.64]]]}},{"type":"Feature","properties":{"area_m2":2.4},"geometry":{"type":"Polygon","coordinates":[[[16.45,24.57],[19.46,24.57],[19.46,23.77],[16.45,23.77],[16.45,24.57],[16.45,24.57]]]}},{"type":"Feature","properties":{"area_m2":2.4},"geometry":{"type":"Polygon","coordinates":[[[11.05,23.41],[12.02,23.41],[12.02,21.63],[10.12,21.63],[10.12,22.35],[11.04,22.35],[11.04,23.43],[11.05,23.41]]]}},{"type":"Feature","properties":{"area_m2":2.4},"geometry":{"type":"Polygon","coordinates":[[[32.3,7.88],[32.7,7.88],[33.38,7.15],[33.38,6.59],[32.85,6.59],[32.55,5.92],[31.69,5.92],[31.69,7.2],[32.3,7.88],[32.3,7.88]]]}},{"type":"Feature","properties":{"area_m2":2.3},"geometry":{"type":"Polygon","coordinates":[[[10.25,45.61],[12.03,45.61],[12.03,43.99],[11.0,43.99],[11.0,44.88],[9.95,44.88],[10.25,45.62],[10.25,45.61]]]}},{"type":"Feature","properties":{"area_m2":2.3},"geometry":{"type":"Polygon","coordinates":[[[12.2,43.45],[14.07,43.45],[14.07,42.69],[11.05,42.69],[11.05,43.45],[12.2,43.45],[12.2,43.45]]]}},{"type":"Feature","properties":{"area_m2":2.3},"geometry":{"type":"Polygon","coordinates":[[[16.45,43.45],[19.46,43.45],[19.46,42.69],[16.45,42.69],[16.45,43.48],[16.45,43.45]]]}},{"type":"Feature","properties":{"area_m2":2.3},"geometry":{"type":"Polygon","coordinates":[[[94.05,25.51],[96.02,25.51],[96.02,24.34],[94.05,24.34],[94.05,25.53],[94.05,25.51]]]}},{"type":"Feature","properties":{"area_m2":2.3},"geometry":{"type":"Polygon","coordinates":[[[63.65,12.46],[64.02,12.46],[64.02,6.69],[63.63,6.69],[63.63,12.47],[63.65,12.46]]]}},{"type":"Feature","properties":{"area_m2":2.2},"geometry":{"type":"Polygon","coordinates":[[[23.9,63.52],[28.52,63.52],[28.52,62.77],[26.7,62.77],[25.6,63.23],[23.9,63.52],[23.9,63.52]]]}},{"type":"Feature","properties":{"area_m2":2.2},"geometry":{"type":"Polygon","coordinates":[[[94.05,42.83],[96.06,42.83],[96.06,41.74],[94.05,41.74],[94.05,42.83],[94.05,42.83]]]}},{"type":"Feature","properties":{"area_m2":2.2},"geometry":{"type":"Polygon","coordinates":[[[97.5,25.57],[98.15,25.05],[98.95,25.05],[99.4,25.57],[99.4,25.06],[100.08,25.06],[100.08,24.54],[96.69,24.54],[96.69,24.95],[97.5,25.57],[97.5,25.57]]]}},{"type":"Feature","properties":{"area_m2":2.2},"geometry":{"type":"Polygon","coordinates":[[[42.05,12.46],[42.41,12.46],[42.41,6.69],[42.03,6.69],[42.03,12.47],[42.05,12.46]]]}},{"type":"Feature","properties":{"area_m2":2.2},"geometry":{"type":"Polygon","coordinates":[[[52.85,12.46],[53.22,12.46],[53.22,6.69],[52.84,6.69],[52.84,12.47],[52.85,12.46]]]}},{"type":"Feature","properties":{"area_m2":2.2},"geometry":{"type":"Polygon","coordinates":[[[37.1,3.73],[37.7,3.73],[39.23,2.9],[37.1,1.93],[37.1,3.73],[37.1,3.73]]]}},{"type":"Feature","properties":{"area_m2":2.1},"geometry":{"type":"Polygon","coordinates":[[[91.6,46.88],[95.3,46.88],[95.88,46.39],[91.05,46.39],[91.6,46.88],[91.6,46.88]]]}},{"type":"Feature","properties":{"area_m2":2.1},"geometry":{"type":"Polygon","coordinates":[[[96.4,23.07],[100.41,22.78],[100.41,22.39],[96.4,22.39],[96.4,23.07],[96.4,23.07]]]}},{"type":"Feature","properties":{"area_m2":2.1},"geometry":{"type":"Polygon","coordinates":[[[74.45,12.46],[74.81,12.46],[74.81,6.69],[74.44,6.69],[74.44,12.47],[74.45,12.46]]]}},{"type":"Feature","properties":{"area_m2":2.1},"geometry":{"type":"Polygon","coordinates":[[[85.25,12.46],[85.61,12.46],[85.61,6.69],[85.24,6.69],[85.24,12.47],[85.25,12.46]]]}},{"type":"Feature","properties":{"area_m2":2.0},"geometry":{"type":"Polygon","coordinates":[[[12.65,66.91],[17.84,66.91],[17.84,66.42],[17.3,66.42],[12.65,66.67],[12.65,66.97],[12.65,66.91]]]}},{"type":"Feature","properties":{"area_m2":2.0},"geometry":{"type":"Polygon","coordinates":[[[27.15,53.52],[30.02,53.52],[30.02,52.84],[27.15,52.84],[27.15,53.52],[27.15,53.52]]]}},{"type":"Feature","properties":{"area_m2":2.0},"geometry":{"type":"Polygon","coordinates":[[[34.65,45.11],[36.58,45.11],[36.55,44.84],[35.66,44.84],[35.66,42.68],[35.15,43.59],[34.63,43.59],[34.63,45.12],[34.65,45.11]]]}},{"type":"Feature","properties":{"area_m2":2.0},"geometry":{"type":"Polygon","coordinates":[[[67.71,33.52],[67.71,31.12],[68.06,31.12],[68.06,25.74],[67.69,25.74],[67.69,33.52],[67.71,33.52]]]}},{"type":"Feature","properties":{"area_m2":2.0},"geometry":{"type":"Polygon","coordinates":[[[92.2,26.03],[92.93,26.03],[92.93,25.54],[93.52,25.54],[93.52,24.34],[92.19,24.34],[92.19,26.03],[92.2,26.03]]]}},{"type":"Feature","properties":{"area_m2":1.9},"geometry":{"type":"Polygon","coordinates":[[[96.6,54.26],[98.23,54.26],[98.23,53.11],[96.6,53.11],[96.6,54.27],[96.6,54.26]]]}},{"type":"Feature","properties":{"area_m2":1.9},"geometry":{"type":"Polygon","coordinates":[[[5.65,45.61],[6.61,45.61],[6.61,43.72],[5.63,43.72],[5.63,45.62],[5.65,45.61]]]}},{"type":"Feature","properties":{"area_m2":1.9},"geometry":{"type":"Polygon","coordinates":[[[91.74,39.52],[91.74,33.78],[91.34,33.78],[91.34,38.33],[91.69,38.33],[91.69,39.52],[91.74,39.52]]]}},{"type":"Feature","properties":{"area_m2":1.9},"geometry":{"type":"Polygon","coordinates":[[[93.54,39.52],[93.54,33.78],[93.14,33.78],[93.14,38.33],[93.49,38.33],[93.49,39.52],[93.54,39.52]]]}},{"type":"Feature","properties":{"area_m2":1.9},"geometry":{"type":"Polygon","coordinates":[[[41.05,3.49],[42.01,3.49],[42.01,1.98],[39.93,2.9],[41.05,3.52],[41.05,3.49]]]}},{"type":"Feature","properties":{"area_m2":1.8},"geometry":{"type":"Polygon","coordinates":[[[18.25,69.85],[20.69,69.85],[20.69,69.12],[18.23,69.12],[18.23,69.92],[18.25,69.85]]]}},{"type":"Feature","properties":{"area_m2":1.8},"geometry":{"type":"Polygon","coordinates":[[[23.1,59.97],[23.66,59.97],[23.66,56.89],[23.09,56.89],[23.09,59.98],[23.1,59.97]]]}},{"type":"Feature","properties":{"area_m2":1.8},"geometry":{"type":"Polygon","coordinates":[[[35.5,52.38],[36.56,52.38],[36.56,51.6],[36.81,51.6],[36.81,50.83],[36.4,51.33],[35.85,51.33],[35.85,49.94],[35.49,49.94],[35.49,52.38],[35.5,52.38]]]}},{"type":"Feature","properties":{"area_m2":1.8},"geometry":{"type":"Polygon","coordinates":[[[9.6,49.37],[10.16,49.37],[10.16,46.13],[9.59,46.13],[9.59,49.38],[9.6,49.37]]]}},{"type":"Feature","properties":{"area_m2":1.8},"geometry":{"type":"Polygon","coordinates":[[[20.4,49.37],[20.96,49.37],[20.96,46.28],[20.39,46.28],[20.39,49.38],[20.4,49.37]]]}},{"type":"Feature","properties":{"area_m2":1.8},"geometry":{"type":"Polygon","coordinates":[[[92.2,42.81],[93.53,42.81],[93.53,41.74],[92.97,41.74],[92.97,41.24],[92.19,41.24],[92.19,42.83],[92.2,42.81]]]}},{"type":"Feature","properties":{"area_m2":1.8},"geometry":{"type":"Polygon","coordinates":[[[86.65,41.51],[86.97,41.51],[86.97,36.09],[86.64,36.09],[86.64,41.52],[86.65,41.51]]]}},{"type":"Feature","properties":{"area_m2":1.8},"geometry":{"type":"Polygon","coordinates":[[[93.15,33.47],[93.56,33.47],[93.49,27.73],[93.49,28.85],[93.14,28.85],[93.14,33.48],[93.15,33.47]]]}},{"type":"Feature","properties":{"area_m2":1.8},"geometry":{"type":"Polygon","coordinates":[[[34.85,24.56],[35.66,24.56],[35.66,22.79],[34.68,22.79],[34.68,23.65],[34.43,23.8],[34.85,24.57],[34.85,24.56]]]}},{"type":"Feature","properties":{"area_m2":1.8},"geometry":{"type":"Polygon","coordinates":[[[97.5,14.78],[98.28,13.85],[98.28,13.45],[97.5,13.83],[97.03,13.5],[97.03,13.0],[97.5,12.47],[98.27,12.88],[98.27,12.29],[96.64,12.29],[96.64,13.94],[97.47,13.94],[97.47,14.78],[97.5,14.78]]]}},{"type":"Feature","properties":{"area_m2":1.7},"geometry":{"type":"Polygon","coordinates":[[[40.25,66.53],[42.0,66.53],[42.0,65.17],[40.0,66.17],[40.25,66.53],[40.25,66.53]]]}},{"type":"Feature","properties":{"area_m2":1.7},"geometry":{"type":"Polygon","coordinates":[[[31.25,61.23],[31.55,56.34],[36.74,56.34],[36.78,60.18],[36.78,56.24],[31.52,56.24],[31.52,55.11],[31.25,55.11],[31.25,61.23],[31.25,61.23]]]}},{"type":"Feature","properties":{"area_m2":1.7},"geometry":{"type":"Polygon","coordinates":[[[9.6,52.56],[10.18,52.56],[10.18,49.66],[9.8,49.66],[9.59,49.65],[9.59,52.58],[9.6,52.56]]]}},{"type":"Feature","properties":{"area_m2":1.7},"geometry":{"type":"Polygon","coordinates":[[[94.4,33.47],[94.77,33.47],[94.72,27.73],[94.72,28.85],[94.39,28.85],[94.39,33.48],[94.4,33.47]]]}},{"type":"Feature","properties":{"area_m2":1.7},"geometry":{"type":"Polygon","coordinates":[[[91.1,20.77],[95.83,20.77],[95.35,20.38],[91.55,20.38],[91.1,20.78],[91.1,20.77]]]}},{"type":"Feature","properties":{"area_m2":1.7},"geometry":{"type":"Polygon","coordinates":[[[89.95,3.46],[90.61,3.46],[90.61,1.98],[88.53,2.9],[89.95,3.48],[89.95,3.46]]]}},{"type":"Feature","properties":{"area_m2":1.7},"geometry":{"type":"Polygon","coordinates":[[[87.2,3.33],[87.78,2.85],[85.69,1.95],[85.69,3.28],[87.2,3.28],[87.2,3.33]]]}},{"type":"Feature","properties":{"area_m2":1.6},"geometry":{"type":"Polygon","coordinates":[[[30.8,60.93],[31.02,60.8],[31.02,53.73],[30.79,53.75],[30.79,60.93],[30.8,60.93]]]}},{"type":"Feature","properties":{"area_m2":1.6},"geometry":{"type":"Polygon","coordinates":[[[96.15,60.38],[96.36,60.35],[96.28,46.38],[96.28,50.69],[90.88,50.8],[96.28,50.8],[96.28,57.28],[90.83,57.35],[96.1,57.35],[96.1,60.38],[96.15,60.38]]]}},{"type":"Feature","properties":{"area_m2":1.6},"geometry":{"type":"Polygon","coordinates":[[[9.55,59.88],[10.11,59.4],[10.11,56.89],[9.54,56.89],[9.54,59.88],[9.55,59.88]]]}},{"type":"Feature","properties":{"area_m2":1.6},"geometry":{"type":"Polygon","coordinates":[[[32.65,55.54],[34.13,55.54],[34.13,54.51],[32.8,54.51],[32.8,54.77],[32.55,54.52],[32.55,55.58],[32.65,55.54]]]}},{"type":"Feature","properties":{"area_m2":1.6},"geometry":{"type":"Polygon","coordinates":[[[23.66,49.27],[23.66,46.28],[23.09,46.28],[23.09,48.8],[23.65,49.27],[23.66,49.27]]]}},{"type":"Feature","properties":{"area_m2":1.6},"geometry":{"type":"Polygon","coordinates":[[[94.69,39.52],[94.69,33.78],[94.34,33.78],[94.34,38.3],[94.64,38.3],[94.64,39.52],[94.69,39.52]]]}},{"type":"Feature","properties":{"area_m2":1.6},"geometry":{"type":"Polygon","coordinates":[[[95.29,39.52],[95.29,33.78],[94.94,33.78],[94.94,38.3],[95.24,38.3],[95.24,39.52],[95.29,39.52]]]}},{"type":"Feature","properties":{"area_m2":1.6},"geometry":{"type":"Polygon","coordinates":[[[92.55,33.47],[92.91,33.47],[92.87,27.73],[92.87,28.85],[92.54,28.85],[92.54,33.48],[92.55,33.47]]]}},{"type":"Feature","properties":{"area_m2":1.6},"geometry":{"type":"Polygon","coordinates":[[[95.0,33.47],[95.36,33.47],[95.32,27.73],[95.32,28.85],[94.99,28.85],[94.99,33.48],[95.0,33.47]]]}},{"type":"Feature","properties":{"area_m2":1.6},"geometry":{"type":"Polygon","coordinates":[[[32.65,14.95],[34.08,14.95],[34.08,13.91],[32.58,13.91],[32.58,14.97],[32.65,14.95]]]}},{"type":"Feature","properties":{"area_m2":1.6},"geometry":{"type":"Polygon","coordinates":[[[93.75,14.95],[95.22,14.95],[95.22,13.91],[93.65,13.91],[93.65,14.97],[93.75,14.95]]]}},{"type":"Feature","properties":{"area_m2":1.6},"geometry":{"type":"Polygon","coordinates":[[[100.45,11.71],[101.28,11.71],[101.28,10.2],[101.0,9.47],[100.44,10.15],[100.44,11.72],[100.45,11.71]]]}},{"type":"Feature","properties":{"area_m2":1.5},"geometry":{"type":"Polygon","coordinates":[[[93.6,53.3],[95.19,53.3],[95.19,52.34],[93.62,52.34],[93.62,53.33],[93.6,53.3]]]}},{"type":"Feature","properties":{"area_m2":1.5},"geometry":{"type":"Polygon","coordinates":[[[32.45,52.2],[34.11,52.2],[34.11,51.24],[32.5,51.24],[32.5,52.23],[32.45,52.2]]]}},{"type":"Feature","properties":{"area_m2":1.5},"geometry":{"type":"Polygon","coordinates":[[[96.35,44.77],[100.3,44.77],[100.33,44.55],[96.35,44.23],[96.35,44.77],[96.35,44.77]]]}},{"type":"Feature","properties":{"area_m2":1.5},"geometry":{"type":"Polygon","coordinates":[[[100.0,14.58],[100.28,13.85],[100.28,12.29],[99.49,12.29],[99.49,13.85],[100.0,14.58],[100.0,14.58]]]}},{"type":"Feature","properties":{"area_m2":1.5},"geometry":{"type":"Polygon","coordinates":[[[101.0,14.58],[101.28,13.85],[101.28,12.29],[100.49,12.29],[100.49,13.85],[101.0,14.58],[101.0,14.58]]]}},{"type":"Feature","properties":{"area_m2":1.5},"geometry":{"type":"Polygon","coordinates":[[[93.55,11.6],[94.9,11.6],[94.9,11.33],[95.21,11.58],[95.21,10.63],[93.6,10.63],[93.6,11.62],[93.55,11.6]]]}},{"type":"Feature","properties":{"area_m2":1.5},"geometry":{"type":"Polygon","coordinates":[[[45.1,4.03],[47.56,4.03],[47.56,3.42],[45.1,3.42],[45.1,4.03],[45.1,4.03]]]}},{"type":"Feature","properties":{"area_m2":1.5},"geometry":{"type":"Polygon","coordinates":[[[47.35,1.18],[47.56,1.15],[47.56,0.49],[45.09,0.49],[45.09,1.1],[47.35,1.1],[47.35,1.18]]]}}]}
